#aV2019  4 17  0  0  0.00000000     288 DD+AD WGS84 FIT  NGA
## 2049 259200.00000000   300.00000000 58590 0.0000000000000
+   31     1  2  3  5  6  7  8  9 10 11 12 13 14 15 16 17 18
+         19 20 21 22 23 24 25 26 27 28 29 30 31 32  0  0  0
+          0  0  0  0  0  0  0  0  0  0  0  0  0  0  0  0  0
+          0  0  0  0  0  0  0  0  0  0  0  0  0  0  0  0  0
+          0  0  0  0  0  0  0  0  0  0  0  0  0  0  0  0  0
++         2  2  2  2  2  2  2  2  2  2  2  2  2  2  2  2  2
++         2  2  2  2  2  2  2  2  2  2  2  2  2  2  0  0  0
++         0  0  0  0  0  0  0  0  0  0  0  0  0  0  0  0  0
++         0  0  0  0  0  0  0  0  0  0  0  0  0  0  0  0  0
++         0  0  0  0  0  0  0  0  0  0  0  0  0  0  0  0  0
%c cc cc ccc ccc cccc cccc cccc cccc ccccc ccccc ccccc ccccc
%c cc cc ccc ccc cccc cccc cccc cccc ccccc ccccc ccccc ccccc
%f  0.0000000  0.000000000  0.00000000000  0.000000000000000
%f  0.0000000  0.000000000  0.00000000000  0.000000000000000
%i    0    0    0    0      0      0      0      0         0
%i    0    0    0    0      0      0      0      0         0
/*      NGA, ST. LOUIS,MO.                                  
/*   EPHEMERIS COMPUTED FROM 2 DAYS OF DATA                 
/*   EPOCHA v3 SMOOTHER                                     
/*   G1762 IERS2010 SATAF SATAPC                            
*  2019  4 17 22 35  0.00000000
P  1  15864.191184   1595.740281  21121.949356   -204.050769                    
V  1   8958.935949  25609.899028  -8279.749258     -0.082554                    
P  2 -14433.153101 -21329.741973  -6217.780111   -191.561170                    
V  2   -924.753427  -9073.804106  30169.887584     -0.094080                    
P  3  20111.350993  -7310.441669  15643.964103    188.267433                    
V  3 -11133.506117  16684.770518  22139.326127      0.001733                    
P  5 -10978.694399 -11084.914270 -21601.829291      1.113613                    
V  5  16975.176144 -21264.314074   2500.214342     -0.000609                    
P  6  -6344.655104 -25375.200092   4548.444572    228.205060                    
V  6   4230.340249   4505.179771  31387.714167     -0.094871                    
P  7  10367.750795 -13265.730818 -20172.787907     -6.841342                    
V  7  10147.806724  24327.129711 -11110.197494     -0.074637                    
P  8  25926.364713   5696.359471  -2577.848071   -140.289688                    
V  8  -3605.378254   1804.730424 -31613.903319     -0.013596                    
P  9  17776.609688  -9706.485050 -17230.263103    427.055313                    
V  9  21298.305867   5068.640249  19153.405168     -0.064880                    
P 10  -8751.293706  22571.611920  10759.050698     70.206126                    
V 10 -10591.334403   8955.556974 -27751.653533     -0.097818                    
P 11  20943.009043   3738.488352  15224.777767   -624.509471                    
V 11  12484.586890  16647.458519 -20797.744320      0.073548                    
P 12 -20076.683522   5688.206120  16110.759130    250.364547                    
V 12  13123.898741 -16322.154683  22000.199247     -0.033932                    
P 13 -21295.517523 -12955.451237  -9344.553623    -67.381256                    
V 13  11849.588402   1114.061387 -28855.473897      0.015337                    
P 14   8127.401759  16227.291334  19770.223591    -84.088529                    
V 14 -23909.946905  -4802.911729  13815.497201      0.014811                    
P 15 -26583.019294  -2967.090420  -1457.459258   -317.840993                    
V 15   1774.120548  -3361.026503 -30699.911635      0.020150                    
P 16  10679.387306  10254.868122 -22233.973123    -33.423302                    
V 16 -19493.184194  19707.861836    150.286771     -0.028205                    
P 17   1776.509721 -14829.340349  22373.838186     40.648817                    
V 17  26725.051882   5822.791021   1684.343125      0.059246                    
P 18  17409.947589  11266.398257  16187.284795     45.143091                    
V 18   6637.508773  20485.100760 -20644.516571      0.035543                    
P 19  -7235.630026 -15676.031795  19858.185680   -329.476880                    
V 19  25221.331681   5740.075916  13604.514321      0.044232                    
P 20 -13881.280517  22541.309577    547.649115    524.047330                    
V 20  -3746.216536  -1411.489635 -31140.443633      0.002958                    
P 21  -5495.101699  18538.978878 -17471.587780   -210.349381                    
V 21 -11456.261084 -20938.260883 -17671.880792      0.076104                    
P 22  18037.466250    139.382379  19712.921510   -685.512647                    
V 22 -13042.702573  20994.167313  12000.309999     -0.068641                    
P 23  25542.819754  -1759.061812  -7483.376356   -189.804606                    
V 23   9337.624334   4273.405477  29167.608531      0.014887                    
P 24 -17548.549088  -5007.821813  19250.054062    -64.923087                    
V 24  -8611.385182 -23243.717782 -13460.035115     -0.005305                    
P 25 -19476.368428  16529.320868   6556.427125   -746.753665                    
V 25   3468.742820  -8357.825739  30651.488754     -0.043406                    
P 26   2446.909455  18592.991178 -18758.295498    178.645186                    
V 26 -15974.492993  17812.479481  15762.282358      0.098605                    
P 27  20202.759784  11985.424751 -12785.247178   -110.816422                    
V 27 -15976.139162   -979.504638 -26078.227993     -0.087530                    
P 28  11109.707946 -21804.633258  11043.553615    767.507727                    
V 28  10318.527511  -8157.499360 -27949.603314      0.002446                    
P 29 -21839.098265   4722.918596 -14392.698575    223.011112                    
V 29 -17360.522286  -5590.084701  24556.971237     -0.091302                    
P 30   2864.213675 -22636.778900 -13419.807121    -88.386697                    
V 30   8032.509647  15458.050982 -24510.306373     -0.068844                    
P 31   6499.153788  25324.562832   3005.530654     44.345138                    
V 31  -4275.558246  -2616.647142  31729.436387     -0.026690                    
P 32   2001.107024  15611.524345  21460.474104   -127.874572                    
V 32 -26858.736984  -3789.838847   5161.260783      0.176141                    
EOF
